<?xml version="1.0" encoding="UTF-8" standalone="yes"?>
<!DOCTYPE shakemap-data [
<!ELEMENT shakemap-data (earthquake,stationlist)>
<!ELEMENT stationlist (station+)>
<!ATTLIST stationlist
  created	CDATA	#REQUIRED
>

<!ELEMENT station (comp+)>
<!ATTLIST station
  code		CDATA 			#REQUIRED
  name		CDATA 			#REQUIRED
  insttype	CDATA 			#REQUIRED
  lat		CDATA 			#REQUIRED
  lon		CDATA 			#REQUIRED
  source	(SCSN|CGS|NSMP) 	'SCSN'
  netid		CDATA			#REQUIRED
  commtype	(DIG|ANA) 		'DIG'
  dist          CDATA                   '10.0'
  loc		CDATA			''
>

<!ELEMENT comp (acc,vel,psa*)>
<!ATTLIST comp
  name          CDATA  #REQUIRED
  originalname  CDATA  #IMPLIED
>

<!ELEMENT acc EMPTY>
<!ELEMENT vel EMPTY>
<!ELEMENT psa03 EMPTY>
<!ELEMENT psa10 EMPTY>
<!ELEMENT psa30 EMPTY>
<!ATTLIST acc
  value  CDATA         #REQUIRED
  flag   CDATA        ''
>
<!ATTLIST vel
  value CDATA          #REQUIRED
  flag  CDATA         ''
>
<!ATTLIST psa03
  value CDATA          #REQUIRED
  flag  CDATA         ''
>
<!ATTLIST psa10
  value CDATA          #REQUIRED
  flag  CDATA         ''
>
<!ATTLIST psa30
  value CDATA          #REQUIRED
  flag  CDATA         ''
>
<!ELEMENT  earthquake EMPTY>
<!ATTLIST earthquake
  id 		ID	#REQUIRED
  lat		CDATA	#REQUIRED
  lon		CDATA	#REQUIRED
  mag		CDATA	#REQUIRED
  year          CDATA   #REQUIRED
  month         CDATA   #REQUIRED
  day           CDATA   #REQUIRED
  hour          CDATA   #REQUIRED
  minute        CDATA   #REQUIRED
  second        CDATA   #REQUIRED
  timezone      CDATA   #REQUIRED
  depth		CDATA	#REQUIRED
  type		CDATA	#REQUIRED
  locstring	CDATA	#REQUIRED
  pga		CDATA   #REQUIRED
  pgv		CDATA   #REQUIRED
  sp03		CDATA   #REQUIRED
  sp10		CDATA   #REQUIRED
  sp30		CDATA   #REQUIRED
  created	CDATA	#REQUIRED
>
]>
<shakemap-data code_version="3.5" map_version="1">
<earthquake id="19891227232627" lat="-32.95200" lon="151.61000" mag="5.4" year="1989" month="12" day="27" hour="23" minute="26" second="27" timezone="GMT" depth="10.5" network="us" locstring="Newcastle, Australia" created="1485474324" />
<stationlist created="1485474324">
<station code="OBS_1" name="Unknown" insttype="OBSERVED" lat="-33.012874" lon="151.537144" dist="8.326273" source="Geoscience Australia Isoseismal Atlas" netid="MMI" commtype="DIG" loc="" intensity="6.0">
<comp name="DERIVED">
<pga value="13.15" flag="0" />
<pgv value="7.88" flag="0" />
<psa03 value="21.62" flag="0" />
<psa10 value="7.88" flag="0" />
<psa30 value="2.05" flag="0" />
</comp>
</station>
<station code="OBS_2" name="Unknown" insttype="OBSERVED" lat="-32.925778" lon="151.550223" dist="5.069740" source="Geoscience Australia Isoseismal Atlas" netid="MMI" commtype="DIG" loc="" intensity="6.0">
<comp name="DERIVED">
<pga value="13.63" flag="0" />
<pgv value="7.98" flag="0" />
<psa03 value="22.21" flag="0" />
<psa10 value="7.89" flag="0" />
<psa30 value="2.02" flag="0" />
</comp>
</station>
<station code="OBS_3" name="Unknown" insttype="OBSERVED" lat="-32.888621" lon="151.574951" dist="6.521153" source="Geoscience Australia Isoseismal Atlas" netid="MMI" commtype="DIG" loc="" intensity="6.0">
<comp name="DERIVED">
<pga value="13.42" flag="0" />
<pgv value="7.94" flag="0" />
<psa03 value="21.95" flag="0" />
<psa10 value="7.89" flag="0" />
<psa30 value="2.03" flag="0" />
</comp>
</station>
<station code="OBS_4" name="Unknown" insttype="OBSERVED" lat="-33.028778" lon="151.584423" dist="7.604604" source="Geoscience Australia Isoseismal Atlas" netid="MMI" commtype="DIG" loc="" intensity="6.0">
<comp name="DERIVED">
<pga value="13.26" flag="0" />
<pgv value="7.90" flag="0" />
<psa03 value="21.75" flag="0" />
<psa10 value="7.88" flag="0" />
<psa30 value="2.04" flag="0" />
</comp>
</station>
<station code="OBS_5" name="Unknown" insttype="OBSERVED" lat="-33.026384" lon="151.603399" dist="7.039589" source="Geoscience Australia Isoseismal Atlas" netid="MMI" commtype="DIG" loc="" intensity="6.0">
<comp name="DERIVED">
<pga value="13.34" flag="0" />
<pgv value="7.92" flag="0" />
<psa03 value="21.85" flag="0" />
<psa10 value="7.88" flag="0" />
<psa30 value="2.04" flag="0" />
</comp>
</station>
<station code="OBS_6" name="Unknown" insttype="OBSERVED" lat="-33.044186" lon="151.592349" dist="9.111789" source="Geoscience Australia Isoseismal Atlas" netid="MMI" commtype="DIG" loc="" intensity="6.0">
<comp name="DERIVED">
<pga value="13.03" flag="0" />
<pgv value="7.85" flag="0" />
<psa03 value="21.47" flag="0" />
<psa10 value="7.87" flag="0" />
<psa30 value="2.06" flag="0" />
</comp>
</station>
<station code="OBS_7" name="Unknown" insttype="OBSERVED" lat="-33.056124" lon="151.581732" dist="10.597315" source="Geoscience Australia Isoseismal Atlas" netid="MMI" commtype="DIG" loc="" intensity="6.0">
<comp name="DERIVED">
<pga value="12.81" flag="0" />
<pgv value="7.81" flag="0" />
<psa03 value="21.20" flag="0" />
<psa10 value="7.87" flag="0" />
<psa30 value="2.07" flag="0" />
</comp>
</station>
<station code="OBS_8" name="Unknown" insttype="OBSERVED" lat="-33.055040" lon="151.596646" dist="10.249361" source="Geoscience Australia Isoseismal Atlas" netid="MMI" commtype="DIG" loc="" intensity="6.0">
<comp name="DERIVED">
<pga value="12.86" flag="0" />
<pgv value="7.82" flag="0" />
<psa03 value="21.26" flag="0" />
<psa10 value="7.87" flag="0" />
<psa30 value="2.07" flag="0" />
</comp>
</station>
<station code="OBS_9" name="Unknown" insttype="OBSERVED" lat="-33.046523" lon="151.613842" dist="9.245698" source="Geoscience Australia Isoseismal Atlas" netid="MMI" commtype="DIG" loc="" intensity="6.0">
<comp name="DERIVED">
<pga value="13.01" flag="0" />
<pgv value="7.85" flag="0" />
<psa03 value="21.45" flag="0" />
<psa10 value="7.87" flag="0" />
<psa30 value="2.06" flag="0" />
</comp>
</station>
<station code="OBS_10" name="Unknown" insttype="OBSERVED" lat="-33.076244" lon="151.601619" dist="12.554220" source="Geoscience Australia Isoseismal Atlas" netid="MMI" commtype="DIG" loc="" intensity="6.0">
<comp name="DERIVED">
<pga value="12.53" flag="0" />
<pgv value="7.74" flag="0" />
<psa03 value="20.85" flag="0" />
<psa10 value="7.86" flag="0" />
<psa30 value="2.09" flag="0" />
</comp>
</station>
<station code="OBS_11" name="Unknown" insttype="OBSERVED" lat="-33.094926" lon="151.657124" dist="15.200232" source="Geoscience Australia Isoseismal Atlas" netid="MMI" commtype="DIG" loc="" intensity="6.0">
<comp name="DERIVED">
<pga value="12.18" flag="0" />
<pgv value="7.67" flag="0" />
<psa03 value="20.41" flag="0" />
<psa10 value="7.84" flag="0" />
<psa30 value="2.12" flag="0" />
</comp>
</station>
<station code="OBS_12" name="Unknown" insttype="OBSERVED" lat="-33.080345" lon="151.652820" dist="13.533816" source="Geoscience Australia Isoseismal Atlas" netid="MMI" commtype="DIG" loc="" intensity="6.0">
<comp name="DERIVED">
<pga value="12.40" flag="0" />
<pgv value="7.71" flag="0" />
<psa03 value="20.69" flag="0" />
<psa10 value="7.85" flag="0" />
<psa30 value="2.10" flag="0" />
</comp>
</station>
<station code="OBS_13" name="Unknown" insttype="OBSERVED" lat="-33.072232" lon="151.651791" dist="12.642116" source="Geoscience Australia Isoseismal Atlas" netid="MMI" commtype="DIG" loc="" intensity="6.0">
<comp name="DERIVED">
<pga value="12.52" flag="0" />
<pgv value="7.74" flag="0" />
<psa03 value="20.84" flag="0" />
<psa10 value="7.86" flag="0" />
<psa30 value="2.09" flag="0" />
</comp>
</station>
<station code="OBS_14" name="Unknown" insttype="OBSERVED" lat="-33.057909" lon="151.650185" dist="11.079567" source="Geoscience Australia Isoseismal Atlas" netid="MMI" commtype="DIG" loc="" intensity="6.0">
<comp name="DERIVED">
<pga value="12.74" flag="0" />
<pgv value="7.79" flag="0" />
<psa03 value="21.11" flag="0" />
<psa10 value="7.86" flag="0" />
<psa30 value="2.08" flag="0" />
</comp>
</station>
<station code="OBS_15" name="Unknown" insttype="OBSERVED" lat="-33.006861" lon="151.604806" dist="4.898612" source="Geoscience Australia Isoseismal Atlas" netid="MMI" commtype="DIG" loc="" intensity="6.0">
<comp name="DERIVED">
<pga value="13.65" flag="0" />
<pgv value="7.99" flag="0" />
<psa03 value="22.24" flag="0" />
<psa10 value="7.90" flag="0" />
<psa30 value="2.02" flag="0" />
</comp>
</station>
<station code="OBS_16" name="Unknown" insttype="OBSERVED" lat="-32.984819" lon="151.614019" dist="2.555489" source="Geoscience Australia Isoseismal Atlas" netid="MMI" commtype="DIG" loc="" intensity="6.0">
<comp name="DERIVED">
<pga value="13.95" flag="0" />
<pgv value="8.05" flag="0" />
<psa03 value="22.59" flag="0" />
<psa10 value="7.90" flag="0" />
<psa30 value="2.00" flag="0" />
</comp>
</station>
<station code="OBS_17" name="Unknown" insttype="OBSERVED" lat="-32.882369" lon="151.657506" dist="7.662322" source="Geoscience Australia Isoseismal Atlas" netid="MMI" commtype="DIG" loc="" intensity="6.0">
<comp name="DERIVED">
<pga value="13.25" flag="0" />
<pgv value="7.90" flag="0" />
<psa03 value="21.74" flag="0" />
<psa10 value="7.88" flag="0" />
<psa30 value="2.04" flag="0" />
</comp>
</station>
<station code="OBS_18" name="Unknown" insttype="OBSERVED" lat="-32.882134" lon="151.685762" dist="9.234648" source="Geoscience Australia Isoseismal Atlas" netid="MMI" commtype="DIG" loc="" intensity="6.0">
<comp name="DERIVED">
<pga value="13.01" flag="0" />
<pgv value="7.85" flag="0" />
<psa03 value="21.45" flag="0" />
<psa10 value="7.87" flag="0" />
<psa30 value="2.06" flag="0" />
</comp>
</station>
<station code="OBS_19" name="Unknown" insttype="OBSERVED" lat="-32.956901" lon="151.716610" dist="8.694361" source="Geoscience Australia Isoseismal Atlas" netid="MMI" commtype="DIG" loc="" intensity="6.0">
<comp name="DERIVED">
<pga value="13.09" flag="0" />
<pgv value="7.87" flag="0" />
<psa03 value="21.55" flag="0" />
<psa10 value="7.88" flag="0" />
<psa30 value="2.05" flag="0" />
</comp>
</station>
<station code="OBS_20" name="Unknown" insttype="OBSERVED" lat="-32.967131" lon="151.714177" dist="8.597034" source="Geoscience Australia Isoseismal Atlas" netid="MMI" commtype="DIG" loc="" intensity="6.0">
<comp name="DERIVED">
<pga value="13.11" flag="0" />
<pgv value="7.87" flag="0" />
<psa03 value="21.57" flag="0" />
<psa10 value="7.88" flag="0" />
<psa30 value="2.05" flag="0" />
</comp>
</station>
<station code="OBS_21" name="Unknown" insttype="OBSERVED" lat="-32.982684" lon="151.713337" dist="8.957036" source="Geoscience Australia Isoseismal Atlas" netid="MMI" commtype="DIG" loc="" intensity="6.0">
<comp name="DERIVED">
<pga value="13.05" flag="0" />
<pgv value="7.86" flag="0" />
<psa03 value="21.50" flag="0" />
<psa10 value="7.87" flag="0" />
<psa30 value="2.06" flag="0" />
</comp>
</station>
<station code="OBS_22" name="Unknown" insttype="OBSERVED" lat="-32.994276" lon="151.718280" dist="9.867166" source="Geoscience Australia Isoseismal Atlas" netid="MMI" commtype="DIG" loc="" intensity="6.0">
<comp name="DERIVED">
<pga value="12.92" flag="0" />
<pgv value="7.83" flag="0" />
<psa03 value="21.33" flag="0" />
<psa10 value="7.87" flag="0" />
<psa30 value="2.06" flag="0" />
</comp>
</station>
<station code="OBS_23" name="Unknown" insttype="OBSERVED" lat="-32.996298" lon="151.679166" dist="6.864784" source="Geoscience Australia Isoseismal Atlas" netid="MMI" commtype="DIG" loc="" intensity="6.0">
<comp name="DERIVED">
<pga value="13.37" flag="0" />
<pgv value="7.93" flag="0" />
<psa03 value="21.89" flag="0" />
<psa10 value="7.89" flag="0" />
<psa30 value="2.03" flag="0" />
</comp>
</station>
<station code="OBS_24" name="Unknown" insttype="OBSERVED" lat="-32.907431" lon="151.581439" dist="4.418973" source="Geoscience Australia Isoseismal Atlas" netid="MMI" commtype="DIG" loc="" intensity="7.0">
<comp name="DERIVED">
<pga value="24.09" flag="0" />
<pgv value="17.10" flag="0" />
<psa03 value="42.61" flag="0" />
<psa10 value="17.24" flag="0" />
<psa30 value="4.33" flag="0" />
</comp>
</station>
<station code="OBS_25" name="Unknown" insttype="OBSERVED" lat="-32.920059" lon="151.614911" dist="2.475247" source="Geoscience Australia Isoseismal Atlas" netid="MMI" commtype="DIG" loc="" intensity="7.0">
<comp name="DERIVED">
<pga value="24.50" flag="0" />
<pgv value="17.21" flag="0" />
<psa03 value="43.16" flag="0" />
<psa10 value="17.25" flag="0" />
<psa30 value="4.30" flag="0" />
</comp>
</station>
<station code="OBS_26" name="Unknown" insttype="OBSERVED" lat="-32.935473" lon="151.625752" dist="1.404092" source="Geoscience Australia Isoseismal Atlas" netid="MMI" commtype="DIG" loc="" intensity="7.0">
<comp name="DERIVED">
<pga value="24.68" flag="0" />
<pgv value="17.25" flag="0" />
<psa03 value="43.40" flag="0" />
<psa10 value="17.26" flag="0" />
<psa30 value="4.29" flag="0" />
</comp>
</station>
<station code="OBS_27" name="Unknown" insttype="OBSERVED" lat="-32.966548" lon="151.630164" dist="1.509088" source="Geoscience Australia Isoseismal Atlas" netid="MMI" commtype="DIG" loc="" intensity="7.0">
<comp name="DERIVED">
<pga value="24.67" flag="0" />
<pgv value="17.25" flag="0" />
<psa03 value="43.37" flag="0" />
<psa10 value="17.26" flag="0" />
<psa30 value="4.29" flag="0" />
</comp>
</station>
<station code="OBS_28" name="Unknown" insttype="OBSERVED" lat="-32.962394" lon="151.620972" dist="0.796666" source="Geoscience Australia Isoseismal Atlas" netid="MMI" commtype="DIG" loc="" intensity="7.0">
<comp name="DERIVED">
<pga value="24.76" flag="0" />
<pgv value="17.27" flag="0" />
<psa03 value="43.50" flag="0" />
<psa10 value="17.26" flag="0" />
<psa30 value="4.28" flag="0" />
</comp>
</station>
<station code="OBS_29" name="Unknown" insttype="OBSERVED" lat="-32.951456" lon="151.654687" dist="3.022408" source="Geoscience Australia Isoseismal Atlas" netid="MMI" commtype="DIG" loc="" intensity="7.0">
<comp name="DERIVED">
<pga value="24.40" flag="0" />
<pgv value="17.18" flag="0" />
<psa03 value="43.02" flag="0" />
<psa10 value="17.25" flag="0" />
<psa30 value="4.31" flag="0" />
</comp>
</station>
<station code="OBS_30" name="Unknown" insttype="OBSERVED" lat="-32.936538" lon="151.672718" dist="4.879421" source="Geoscience Australia Isoseismal Atlas" netid="MMI" commtype="DIG" loc="" intensity="7.0">
<comp name="DERIVED">
<pga value="23.98" flag="0" />
<pgv value="17.08" flag="0" />
<psa03 value="42.46" flag="0" />
<psa10 value="17.23" flag="0" />
<psa30 value="4.34" flag="0" />
</comp>
</station>
<station code="OBS_31" name="Unknown" insttype="OBSERVED" lat="-32.935886" lon="151.658066" dist="3.649276" source="Geoscience Australia Isoseismal Atlas" netid="MMI" commtype="DIG" loc="" intensity="7.0">
<comp name="DERIVED">
<pga value="24.26" flag="0" />
<pgv value="17.15" flag="0" />
<psa03 value="42.84" flag="0" />
<psa10 value="17.24" flag="0" />
<psa30 value="4.32" flag="0" />
</comp>
</station>
<station code="OBS_32" name="Unknown" insttype="OBSERVED" lat="-32.956270" lon="151.672537" dist="4.639844" source="Geoscience Australia Isoseismal Atlas" netid="MMI" commtype="DIG" loc="" intensity="7.0">
<comp name="DERIVED">
<pga value="24.04" flag="0" />
<pgv value="17.09" flag="0" />
<psa03 value="42.54" flag="0" />
<psa10 value="17.23" flag="0" />
<psa30 value="4.34" flag="0" />
</comp>
</station>
<station code="OBS_33" name="Unknown" insttype="OBSERVED" lat="-32.974581" lon="151.605981" dist="1.557009" source="Geoscience Australia Isoseismal Atlas" netid="MMI" commtype="DIG" loc="" intensity="7.0">
<comp name="DERIVED">
<pga value="24.66" flag="0" />
<pgv value="17.25" flag="0" />
<psa03 value="43.36" flag="0" />
<psa10 value="17.26" flag="0" />
<psa30 value="4.29" flag="0" />
</comp>
</station>
<station code="OBS_34" name="Unknown" insttype="OBSERVED" lat="-32.968968" lon="151.602669" dist="1.130802" source="Geoscience Australia Isoseismal Atlas" netid="MMI" commtype="DIG" loc="" intensity="7.0">
<comp name="DERIVED">
<pga value="24.72" flag="0" />
<pgv value="17.26" flag="0" />
<psa03 value="43.45" flag="0" />
<psa10 value="17.26" flag="0" />
<psa30 value="4.29" flag="0" />
</comp>
</station>
<station code="OBS_35" name="Unknown" insttype="OBSERVED" lat="-32.992498" lon="151.585600" dist="3.856517" source="Geoscience Australia Isoseismal Atlas" netid="MMI" commtype="DIG" loc="" intensity="7.0">
<comp name="DERIVED">
<pga value="24.22" flag="0" />
<pgv value="17.14" flag="0" />
<psa03 value="42.78" flag="0" />
<psa10 value="17.24" flag="0" />
<psa30 value="4.32" flag="0" />
</comp>
</station>
<station code="OBS_36" name="Unknown" insttype="OBSERVED" lat="-33.013833" lon="151.593896" dist="5.799276" source="Geoscience Australia Isoseismal Atlas" netid="MMI" commtype="DIG" loc="" intensity="7.0">
<comp name="DERIVED">
<pga value="23.75" flag="0" />
<pgv value="17.02" flag="0" />
<psa03 value="42.16" flag="0" />
<psa10 value="17.22" flag="0" />
<psa30 value="4.36" flag="0" />
</comp>
</station>
<station code="OBS_37" name="Unknown" insttype="OBSERVED" lat="-33.009570" lon="151.638693" dist="5.701646" source="Geoscience Australia Isoseismal Atlas" netid="MMI" commtype="DIG" loc="" intensity="7.0">
<comp name="DERIVED">
<pga value="23.77" flag="0" />
<pgv value="17.02" flag="0" />
<psa03 value="42.19" flag="0" />
<psa10 value="17.22" flag="0" />
<psa30 value="4.36" flag="0" />
</comp>
</station>
<station code="OBS_38" name="Unknown" insttype="OBSERVED" lat="-33.016670" lon="151.643648" dist="6.596517" source="Geoscience Australia Isoseismal Atlas" netid="MMI" commtype="DIG" loc="" intensity="7.0">
<comp name="DERIVED">
<pga value="23.54" flag="0" />
<pgv value="16.96" flag="0" />
<psa03 value="41.88" flag="0" />
<psa10 value="17.21" flag="0" />
<psa30 value="4.38" flag="0" />
</comp>
</station>
<station code="OBS_39" name="Unknown" insttype="OBSERVED" lat="-32.996495" lon="151.661753" dist="5.676324" source="Geoscience Australia Isoseismal Atlas" netid="MMI" commtype="DIG" loc="" intensity="7.0">
<comp name="DERIVED">
<pga value="23.78" flag="0" />
<pgv value="17.02" flag="0" />
<psa03 value="42.20" flag="0" />
<psa10 value="17.22" flag="0" />
<psa30 value="4.36" flag="0" />
</comp>
</station>
<station code="OBS_40" name="Unknown" insttype="OBSERVED" lat="-32.986246" lon="151.643824" dist="3.760067" source="Geoscience Australia Isoseismal Atlas" netid="MMI" commtype="DIG" loc="" intensity="7.0">
<comp name="DERIVED">
<pga value="24.24" flag="0" />
<pgv value="17.14" flag="0" />
<psa03 value="42.81" flag="0" />
<psa10 value="17.24" flag="0" />
<psa30 value="4.32" flag="0" />
</comp>
</station>
<station code="OBS_41" name="Unknown" insttype="OBSERVED" lat="-32.980029" lon="151.673459" dist="5.457964" source="Geoscience Australia Isoseismal Atlas" netid="MMI" commtype="DIG" loc="" intensity="7.0">
<comp name="DERIVED">
<pga value="23.83" flag="0" />
<pgv value="17.04" flag="0" />
<psa03 value="42.27" flag="0" />
<psa10 value="17.23" flag="0" />
<psa30 value="4.35" flag="0" />
</comp>
</station>
<station code="OBS_42" name="Unknown" insttype="OBSERVED" lat="-32.979916" lon="151.688831" dist="6.731480" source="Geoscience Australia Isoseismal Atlas" netid="MMI" commtype="DIG" loc="" intensity="7.0">
<comp name="DERIVED">
<pga value="23.51" flag="0" />
<pgv value="16.95" flag="0" />
<psa03 value="41.84" flag="0" />
<psa10 value="17.21" flag="0" />
<psa30 value="4.38" flag="0" />
</comp>
</station>
<station code="OBS_43" name="Unknown" insttype="OBSERVED" lat="-32.963414" lon="151.694268" dist="6.713172" source="Geoscience Australia Isoseismal Atlas" netid="MMI" commtype="DIG" loc="" intensity="7.0">
<comp name="DERIVED">
<pga value="23.51" flag="0" />
<pgv value="16.96" flag="0" />
<psa03 value="41.84" flag="0" />
<psa10 value="17.21" flag="0" />
<psa30 value="4.38" flag="0" />
</comp>
</station>
<station code="OBS_44" name="Unknown" insttype="OBSERVED" lat="-32.883894" lon="151.720048" dist="11.481860" source="Geoscience Australia Isoseismal Atlas" netid="MMI" commtype="DIG" loc="" intensity="7.0">
<comp name="DERIVED">
<pga value="22.27" flag="0" />
<pgv value="16.63" flag="0" />
<psa03 value="40.17" flag="0" />
<psa10 value="17.16" flag="0" />
<psa30 value="4.48" flag="0" />
</comp>
</station>
